[
    {
        "Altitude(m)": 607897.6412376523,
        "Argument of Periapsis(deg)": 0.0,
        "Eccentricity": 0.0,
        "Inclination(deg)": 60.0,
        "Latitude(deg)": -14.293084510472584,
        "Longitude(deg)": -58.381231080014985,
        "Mean Anomaly(deg)": -16.36360000000004,
        "RAAN(deg)": 50.0,
        "Satellite Name": "Test1 241",
        "Satellite Number": 241,
        "Semi-Major Axis(m)": 6980739.136638005,
        "Time(s)": 0
    },
    {
        "Altitude(m)": 607750.8415608186,
        "Argument of Periapsis(deg)": 0.00010418945913296404,
        "Eccentricity": 0.0,
        "Inclination(deg)": 60.0,
        "Latitude(deg)": -13.758925642140793,
        "Longitude(deg)": -58.09416250846761,
        "Mean Anomaly(deg)": -15.743493854538201,
        "RAAN(deg)": 49.99957995086026,
        "Satellite Name": "Test1 241",
        "Satellite Number": 241,
        "Semi-Major Axis(m)": 6980739.136638005,
        "Time(s)": 10
    }
]